ordinal{string},comment{string},originator{string},norad_cat_id{string},object_name{string},object_type{string},classification_type{string},intldes{string},epoch{timestamp},epoch_microseconds{integer},mean_motion{decimal},eccentricity{decimal},inclination{decimal},ra_of_asc_node{decimal},arg_of_pericenter{decimal},mean_anomaly{decimal},ephemeris_type{string},element_set_no{string},rev_at_epoch{integer},bstar{decimal},mean_motion_dot{decimal},mean_motion_ddot{string},file{string},tle_line0{string},tle_line1{string},tle_line2{string},object_id{string},object_number{string},semimajor_axis{decimal},period{decimal},apogee{decimal},perigee{decimal}
1,GENERATED VIA SPACETRACK.ORG API,JSPOC,25275,IRIDIUM 59,PAYLOAD,U,98019D,2019-02-22T09:24:41Z,977728,14.4998740700000006,0.000642800000000000012,86.3956000000000017,30.2097000000000016,171.150200000000012,188.981699999999989,0,999,9423,6.1376999999999997e-06,4.4999999999999998e-07,0,2414526,0 IRIDIUM 59,1 25275U 98019D   19053.39215252  .00000045  00000-0  61377-5 0  9993,2 25275  86.3956  30.2097 0006428 171.1502 188.9817 14.49987407 94231,1998-019D,25275,7103.82600000000002,99.311000000000007,730.256999999999948,721.125
1,GENERATED VIA SPACETRACK.ORG API,JSPOC,43609,HAIYANG 1C,PAYLOAD,U,18068A,2019-02-22T09:25:15Z,811104,14.3414390600000008,0.00135099999999999999,98.5812999999999988,128.711900000000014,120.521000000000001,239.730999999999995,0,999,2412,6.01599999999999966e-06,-2.70000000000000009e-07,0,2414394,0 HAIYANG 1C,1 43609U 18068A   19053.39254411 -.00000027  00000-0  60160-5 0  9990,2 43609  98.5813 128.7119 0013510 120.5210 239.7310 14.34143906 24127,2018-068A,43609,7156.04899999999998,100.408000000000001,787.581999999999994,768.245999999999981
1,GENERATED VIA SPACETRACK.ORG API,JSPOC,40028,POPSAT HIP 1,PAYLOAD,U,14033U,2019-02-22T09:25:15Z,354048,14.8871204600000002,0.0015409,97.9110000000000014,333.757900000000006,81.2836999999999961,279.012099999999975,0,999,25399,5.71810000000000036e-07,-5.09999999999999988e-07,0,2414466,0 POPSAT HIP 1,1 40028U 14033U   19053.39253882 -.00000051  00000-0  57181-6 0  9998,2 40028  97.9110 333.7579 0015409  81.2837 279.0121 14.88712046253999,2014-033U,40028,6980.09500000000025,96.7270000000000039,612.716000000000008,591.205000000000041
1,GENERATED VIA SPACETRACK.ORG API,JSPOC,20705,TDF 2,PAYLOAD,U,90063A,2019-02-22T09:25:32Z,607264,0.986085850000000042,0.00487760000000000016,14.6997,19.6279000000000003,266.400599999999997,96.6024000000000029,0,999,10691,0,-3.99999999999999982e-07,0,2414430,0 TDF 2,1 20705U 90063A   19053.39273851 -.00000040  00000-0  00000+0 0  9992,2 20705  14.6997  19.6279 0048776 266.4006  96.6024  0.98608585106915,1990-063A,20705,42637.5279999999984,1460.31899999999996,36467.362000000001,36051.4239999999991
1,GENERATED VIA SPACETRACK.ORG API,JSPOC,40072,SKYSAT 2,PAYLOAD,U,14037D,2019-02-22T09:25:32Z,94048,14.8115217000000001,0.000615500000000000053,98.4043000000000063,201.420199999999994,226.01169999999999,134.058999999999997,0,999,25004,1.65140000000000015e-05,6.99999999999999968e-07,0,2414434,0 SKYSAT 2,1 40072U 14037D   19053.39273257  .00000070  00000-0  16514-4 0  9992,2 40072  98.4043 201.4202 0006155 226.0117 134.0590 14.81152170250043,2014-037D,40072,7003.82600000000002,97.2210000000000036,630.001999999999953,621.379999999999995
1,GENERATED VIA SPACETRACK.ORG API,JSPOC,31117,EGYPTSAT 1,PAYLOAD,U,07012A,2019-02-22T09:25:36Z,767424,14.7288183900000007,0.000700400000000000003,97.7099999999999937,42.3265999999999991,71.3332999999999942,288.865000000000009,0,999,63650,-1.12050000000000003e-05,-1.17999999999999993e-06,0,2414473,0 EGYPTSAT 1,1 31117U 07012A   19053.39278666 -.00000118  00000-0 -11205-4 0  9993,2 31117  97.7100  42.3266 0007004  71.3333 288.8650 14.72881839636501,2007-012A,31117,7030.02000000000044,97.7669999999999959,656.807999999999993,646.961000000000013
1,GENERATED VIA SPACETRACK.ORG API,JSPOC,42954,VRSS-2,PAYLOAD,U,17060A,2019-02-22T09:27:48Z,806496,14.7608856700000004,0.00205170000000000005,97.9725999999999999,131.709900000000005,111.3566,248.984199999999987,0,999,7392,1.40849999999999998e-05,4.5999999999999999e-07,0,2414394,0 VRSS-2,1 42954U 17060A   19053.39431489  .00000046  00000-0  14085-4 0  9999,2 42954  97.9726 131.7099 0020517 111.3566 248.9842 14.76088567 73924,2017-060A,42954,7019.83399999999983,97.5550000000000068,656.101999999999975,627.297000000000025
1,GENERATED VIA SPACETRACK.ORG API,JSPOC,41899,YIJIAN,PAYLOAD,U,16081B,2019-02-22T09:28:02Z,13600,14.5639612799999991,0.00212409999999999986,98.2312000000000012,354.093999999999994,289.257299999999987,70.6317999999999984,0,999,11535,1.52140000000000004e-05,2.10000000000000001e-07,0,2414408,0 YIJIAN,1 41899U 16081B   19053.39446775  .00000021  00000-0  15214-4 0  9990,2 41899  98.2312 354.0940 0021241 289.2573  70.6318 14.56396128115354,2016-081B,41899,7082.97099999999955,98.8739999999999952,719.880999999999972,689.791000000000054
1,GENERATED VIA SPACETRACK.ORG API,JSPOC,40040,FLOCK 1C 8,PAYLOAD,U,14033AG,2019-02-22T09:28:08Z,221440,14.9171181700000002,0.0013979000000000001,97.939700000000002,341.380400000000009,54.4074000000000026,305.844499999999982,0,999,25432,5.90309999999999978e-05,5.36000000000000035e-06,0,2414465,0 FLOCK 1C 8,1 40040U 14033AG  19053.39453960  .00000536  00000-0  59031-4 0  9992,2 40040  97.9397 341.3804 0013979  54.4074 305.8445 14.91711817254325,2014-033AG,40040,6970.73400000000038,96.5330000000000013,602.344000000000051,582.855000000000018
1,GENERATED VIA SPACETRACK.ORG API,JSPOC,33409,SJ-6F,PAYLOAD,U,08053B,2019-02-22T09:28:48Z,423360,14.9486149699999995,0.00154520000000000005,97.6944000000000017,33.5645999999999987,318.318499999999972,41.6843999999999966,0,999,56290,-2.99079999999999989e-05,-3.83999999999999966e-06,0,2414497,0 SJ-6F,1 33409U 08053B   19053.39500490 -.00000384  00000-0 -29908-4 0  9992,2 33409  97.6944  33.5646 0015452 318.3185  41.6844 14.94861497562905,2008-053B,33409,6960.93900000000031,96.3289999999999935,593.559999999999945,572.048000000000002
1,GENERATED VIA SPACETRACK.ORG API,JSPOC,27939,MOZHAYETS 4,PAYLOAD,U,03042A,2019-02-22T09:29:33Z,712512,14.6675503599999999,0.00143680000000000001,98.019999999999996,191.611899999999991,77.5849999999999937,282.695699999999988,0,999,82349,1.85989999999999993e-05,5.60000000000000038e-07,0,2414432,0 MOZHAYETS 4,1 27939U 03042A   19053.39552908  .00000056  00000-0  18599-4 0  9995,2 27939  98.0200 191.6119 0014368  77.5850 282.6957 14.66755036823491,2003-042A,27939,7049.58299999999963,98.1749999999999972,681.576999999999998,661.31899999999996
1,GENERATED VIA SPACETRACK.ORG API,JSPOC,42011,FLOCK 3P 16,PAYLOAD,U,17008BR,2019-02-22T09:29:50Z,449920,15.2497776999999992,0.000676900000000000028,97.4198999999999984,121.570700000000002,201.633800000000008,158.461500000000001,0,999,11141,3.74340000000000011e-05,8.62000000000000048e-06,0,2414518,0 FLOCK 3P 16,1 42011U 17008BR  19053.39572280  .00000862  00000-0  37434-4 0  9999,2 42011  97.4199 121.5707 0006769 201.6338 158.4615 15.24977770111410,2017-008BR,42011,6868.98899999999958,94.4270000000000067,495.502999999999986,486.204000000000008
1,GENERATED VIA SPACETRACK.ORG API,JSPOC,25980,ORBCOMM FM 30,PAYLOAD,U,99065A,2019-02-22T09:30:08Z,93664,14.3273647900000007,0.000401800000000000009,45.0326000000000022,147.945999999999998,44.0730999999999966,316.043499999999995,0,999,389,3.54489999999999989e-05,-4.30000000000000012e-07,0,2414430,0 ORBCOMM FM 30,1 25980U 99065A   19053.39592701 -.00000043  00000-0  35449-4 0  9994,2 25980  45.0326 147.9460 0004018  44.0731 316.0435 14.32736479  3897,1999-065A,25980,7160.73499999999967,100.506,785.476999999999975,779.722999999999956
1,GENERATED VIA SPACETRACK.ORG API,JSPOC,19017,GORIZONT 15,PAYLOAD,U,88028A,2019-02-22T09:30:51Z,558048,0.978282309999999988,0.00304579999999999998,15.6738999999999997,352.649000000000001,121.791799999999995,115.714699999999993,0,999,9334,0,-1.19000000000000004e-06,0,2414416,0 GORIZONT 15,1 19017U 88028A   19053.39643007 -.00000119  00000-0  00000+0 0  9995,2 19017  15.6739 352.6490 0030458 121.7918 115.7147  0.97828231 93344,1988-028A,19017,42863.9680000000008,1471.9670000000001,36616.387999999999,36355.2779999999984
1,GENERATED VIA SPACETRACK.ORG API,JSPOC,40907,XW-2D,PAYLOAD,U,15049J,2019-02-22T09:31:04Z,446336,15.1569192099999999,0.00125859999999999991,97.4629000000000048,57.1049999999999969,237.244699999999995,230.659500000000008,0,999,18939,4.32209999999999984e-05,7.58000000000000027e-06,0,2414455,0 XW-2D,1 40907U 15049J   19053.39657924  .00000758  00000-0  43221-4 0  9998,2 40907  97.4629  57.1050 0012586 237.2447 230.6595 15.15691921189398,2015-049J,40907,6897.01500000000033,95.0060000000000002,527.561000000000035,510.199999999999989
1,GENERATED VIA SPACETRACK.ORG API,JSPOC,10291,COSMOS 945,PAYLOAD,U,77079G,2019-02-22T09:31:10Z,295616,12.4720693100000002,0.00189240000000000003,74.0267000000000053,17.4013999999999989,291.173699999999997,185.190100000000001,0,999,88954,-4.08460000000000016e-05,-2.20000000000000011e-07,0,2414396,0 COSMOS 945,1 10291U 77079G   19053.39664694 -.00000022  00000-0 -40846-4 0  9990,2 10291  74.0267  17.4014 0018924 291.1737 185.1901 12.47206931889546,1977-079G,10291,7854.33600000000024,115.456999999999994,1491.06400000000008,1461.33699999999999
1,GENERATED VIA SPACETRACK.ORG API,JSPOC,40001,COSMOS 2500 (GLONASS),PAYLOAD,U,14032A,2019-02-22T09:31:20Z,553024,2.13102742000000012,0.000722699999999999948,65.5257000000000005,43.746699999999997,229.758600000000001,11.8888999999999996,0,999,3651,0,-3.20000000000000007e-07,0,2414488,0 COSMOS 2500 (GLONASS),1 40001U 14032A   19053.39676566 -.00000032  00000-0  00000+0 0  9996,2 40001  65.5257  43.7467 0007227 229.7586  11.8889  2.13102742 36517,2014-032A,40001,25507.9650000000001,675.730000000000018,19148.2639999999992,19111.3950000000004
